IRIDIUM 126             
1 42809U 17039G   25239.42318096  .00000264  00000+0  87212-4 0  9992
2 42809  86.3961 116.4757 0001917  87.7227 272.4188 14.34219740427842
IRIDIUM 124             
1 42810U 17039H   25239.50562409  .00000115  00000+0  28299-4 0  9997
2 42810  86.4453  53.1256 0002346  92.1607 267.9863 14.43281037432754
IRIDIUM 128             
1 42811U 17039J   25239.48368957 -.00000088  00000+0 -38624-4 0  9991
2 42811  86.4026 147.9432 0002435  86.4753 273.6722 14.34217494427888
IRIDIUM 121             
1 42812U 17039K   25239.58174600  .00000149  00000+0  46195-4 0  9991
2 42812  86.3961 116.4347 0002251  84.9236 275.2217 14.34217790427748
IRIDIUM 133             
1 42955U 17061A   25239.02702207 -.00000021  00000+0 -14606-4 0  9996
2 42955  86.4027 148.2441 0002057  84.9005 275.2425 14.34217728412618
IRIDIUM 100             
1 42956U 17061B   25239.50905878  .00000275  00000+0  91231-4 0  9997
2 42956  86.4024 147.9689 0002181  88.8064 271.3382 14.34218662412686
IRIDIUM 122             
1 42957U 17061C   25239.47734572  .00000113  00000+0  33317-4 0  9997
2 42957  86.4024 147.9814 0002139  86.0164 274.1276 14.34218443412681
IRIDIUM 129             
1 42958U 17061D   25239.15387346  .00000061  00000+0  14696-4 0  9997
2 42958  86.4025 148.1801 0001937  73.6729 286.4680 14.34217988412651
